STARLINK-36543          
1 67515U 26012Y   26043.16670139 -.01913725  00000+0 -36939-1 0  9993
2 67515  42.9998  99.1528 0001090 262.7608  14.3514 15.50118846  4913
STARLINK-36537          
1 67516U 26012Z   26043.16670139 -.01925353  00000+0 -37051-1 0  9990
2 67516  42.9999  98.9837 0001558 273.3829  71.8042 15.50218316  4914
STARLINK-36544          
1 67517U 26012AA  26043.16670139 -.01901338  00000+0 -39019-1 0  9994
2 67517  42.9997  98.9465 0001193 270.7774  89.9933 15.48374572  4974
STARLINK-36412          
1 67518U 26012AB  26043.16670139  .00003227  00000+0  60811-4 0  9999
2 67518  42.9998  98.9330 0000989 261.6471 103.8779 15.50571368  4915
STARLINK-36415          
1 67519U 26012AC  26043.16670139 -.00074124  00000+0 -12686-2 0  9991
2 67519  42.9997  98.9024 0001626 282.7988  94.5383 15.50601623  5120
STARLINK-36547          
1 67520U 26012AD  26043.16670139  .00060066  00000+0  10229-2 0  9992
2 67520  42.9999  98.9557 0001447 271.5646  84.4661 15.50550995  4911
STARLINK-36444          
1 67521U 26012AE  26043.16670139 -.00133054  00000+0 -22925-2 0  9999
2 67521  43.0002  99.0823 0000950 305.6926 359.3621 15.50682237  4910
HULIANWANG DIGUI-146    
1 67522U 26013A   26042.34729179 -.00000041  00000+0  98639-4 0  9994
2 67522  50.0087  93.2680 0003231 354.9738   5.1123 13.78804724  3212
HULIANWANG DIGUI-147    
1 67523U 26013B   26043.07076711 -.00000042  00000+0  98544-4 0  9999
2 67523  50.0049  90.4143 0001428  24.4462 335.6498 13.78106281  3313
HULIANWANG DIGUI-148    
1 67524U 26013C   26042.63100185 -.00000027  00000+0  11318-3 0  9990
2 67524  50.0089  92.0945 0000669  68.0195 292.0769 13.78557366  3253
HULIANWANG DIGUI-149    
1 67525U 26013D   26042.62750824 -.00000031  00000+0  10788-3 0  9996
2 67525  50.0066  92.0767 0002211  45.1613 314.9460 13.79047719  3256
HULIANWANG DIGUI-150    
1 67526U 26013E   26042.76565202 -.00000036  00000+0  10353-3 0  9999
2 67526  50.0132  91.4490 0002976 205.9839 154.0905 13.79114508  3293
